LYNK TOWER 4            
1 55034U 23001AB  26068.67743801  .00009160  00000+0  30014-3 0  9997
2 55034  97.3324 128.5940 0010321 112.3386 247.8950 15.31819885176588
STARLINK-33814          
1 63582U 25076P   26068.03740400  .00047391  00000+0  17192-2 0  9999
2 63582  43.0039 325.1199 0001404 269.9064  90.1627 15.27607641 51730
